GOES 1 (SMS-C)          
1 08366U 75100A   25068.09789242 -.00000246  00000+0  00000+0 0  9999
2 08366   5.7937 283.2204 0003966 350.0054 208.3080  1.00276493180549
GOES 2                  
1 10061U 77048A   25067.39400103 -.00000191  00000+0  00000+0 0  9994
2 10061   7.5283 297.2773 0013228  42.3338 140.1382  0.99402177 41644
GOES 3                  
1 10953U 78062A   25067.54365142 -.00000027  00000+0  00000+0 0  9999
2 10953   7.9557 302.6765 0001368 351.8911 328.9930  0.99357823123903
GOES 4                  
1 11964U 80074A   25066.72964771  .00000066  00000+0  00000+0 0  9992
2 11964   9.0012 306.4758 0032281  96.1737 249.1947  0.99229166122800
GOES 5                  
1 12472U 81049A   25067.33682029 -.00000227  00000+0  00000+0 0  9991
2 12472  10.1951 318.7630 0002901 322.5764 280.4187  1.00329684118175
GOES 6                  
1 14050U 83041A   25067.15195528 -.00000252  00000+0  00000+0 0  9990
2 14050  10.9365 324.2914 0001374 246.0614 290.7375  1.00301073211348
GOES 7                  
1 17561U 87022A   25066.96960291 -.00000155  00000+0  00000+0 0  9990
2 17561  13.3518 340.9315 0002989  34.9239 131.2912  0.99908479122308
GOES 8                  
1 23051U 94022A   25067.21424184 -.00000298  00000+0  00000+0 0  9992
2 23051  14.0300  17.1416 0004503  23.3599 348.6227  0.98907795119528
GOES 9                  
1 23581U 95025A   25068.05252962 -.00000070  00000+0  00000+0 0  9998
2 23581  13.5470  17.8546 0003575 171.5775  26.5462  0.98800160108157
GOES 10                 
1 24786U 97019A   25067.48217705 -.00000317  00000+0  00000+0 0  9997
2 24786  12.5763  24.3582 0030455 228.2572 235.0144  0.99127311101455
GOES 11                 
1 26352U 00022A   25066.98776090 -.00000006  00000+0  00000+0 0  9992
2 26352  10.8113  50.8437 0004725 246.3828 308.5317  0.99039359 47850
GOES 12                 
1 26871U 01031A   25067.25186102 -.00000265  00000+0  00000+0 0  9996
2 26871  11.3327  41.0790 0007842 294.3960 257.0956  0.99140014 86149
EWS-G1 (GOES 13)        
1 29155U 06018A   25067.88447529 -.00000176  00000+0  00000+0 0  9997
2 29155   3.3193  82.0963 0066028 261.7024 145.6657  0.98832791 38658
GOES 14                 
1 35491U 09033A   25067.41424119 -.00000084  00000+0  00000+0 0  9994
2 35491   0.4735  89.5418 0001214 177.1079 300.7834  1.00268731  1923
EWS-G2 (GOES 15)        
1 36411U 10008A   25067.91364375  .00000022  00000+0  00000+0 0  9994
2 36411   0.0755  92.7496 0004009 187.6723 276.6195  1.00270813 54971
GOES 16                 
1 41866U 16071A   25068.10253214 -.00000265  00000+0  00000+0 0  9991
2 41866   0.0933 286.0330 0001842  71.4012 131.2422  1.00269219 30439
GOES 17                 
1 43226U 18022A   25067.33485812 -.00000108  00000+0  00000+0 0  9992
2 43226   0.0511 311.4255 0001199 124.6883 106.2797  1.00271596 25751
GOES 18                 
1 51850U 22021A   25067.53308679  .00000081  00000+0  00000+0 0  9994
2 51850   0.0383 328.6892 0000267  50.6016 202.0820  1.00273391 11132
GOES 19                 
1 60133U 24119A   25068.11364222 -.00000199  00000+0  00000+0 0  9990
2 60133   0.0219 333.1881 0002095  16.5910 128.6635  1.00270611  2643
